SatCatId,ObjectName,LaunchYear,OrbitalPeriod,LaunchMass,StatusCode,Inclination,Status,UcsData,OrbitClassEstimated,LaunchSiteCountry,Owner,UseType,Purpose,LaunchVehicleClass,TLE1,TLE2,MeanMotion,Eccentricity,OrbitClass
56115,STARLINK-6101,2023,95.84,290.0,+,43.0,Active,1,LEO,USA,USA,Commercial,Communications,Falcon,1 56115U 23046Y   24012.76624895  .00004288  00000+0  33222-3 0  9995,2 56115  43.0041 114.4085 0001246 268.5171  91.5528 15.02546739 43692,15.02546739,0.0001246,LEO
56116,STARLINK-6114,2023,95.84,290.0,+,43.0,Active,1,LEO,USA,USA,Commercial,Communications,Falcon,1 56116U 23046Z   24012.77734620  .00001910  00000+0  15637-3 0  9994,2 56116  43.0034 114.4937 0001150 270.5106  89.5604 15.02546347 43693,15.02546347,0.000115,LEO
56117,STARLINK-6107,2023,95.84,290.0,+,43.0,Active,1,LEO,USA,USA,Commercial,Communications,Falcon,1 56117U 23046AA  24012.68794277  .00001283  00000+0  11005-3 0  9997,2 56117  43.0037 102.5714 0001091 271.4521  88.6196 15.02540892 43823,15.02540892,0.0001091,LEO
56118,STARLINK-6105,2023,95.84,290.0,+,43.0,Active,1,LEO,USA,USA,Commercial,Communications,Falcon,1 56118U 23046AB  24012.70310158  .00001080  00000+0  95026-4 0  9994,2 56118  43.0035 114.7953 0001183 262.5229  97.5479 15.02539398 43686,15.02539398,0.0001183,LEO
56119,STARLINK-6091,2023,95.84,290.0,+,43.0,Active,1,LEO,USA,USA,Commercial,Communications,Falcon,1 56119U 23046AC  24012.69682183  .00005803  00000+0  44412-3 0  9992,2 56119  43.0036 102.6333 0001197 270.3653  89.7052 15.02547952 43820,15.02547952,0.0001197,LEO
56120,STARLINK-6079,2023,95.84,290.0,+,43.0,Active,1,LEO,USA,USA,Commercial,Communications,Falcon,1 56120U 23046AD  24012.70569912  .00000505  00000+0  52476-4 0  9994,2 56120  43.0048 102.7010 0001125 255.7480 104.3237 15.02542860 43826,15.0254286,0.0001125,LEO
56121,STARLINK-6092,2023,95.84,290.0,+,43.0,Active,1,LEO,USA,USA,Commercial,Communications,Falcon,1 56121U 23046AE  24012.70014715  .00001499  00000+0  12600-3 0  9998,2 56121  43.0042 102.6576 0001157 271.8815  88.1894 15.02544020 43821,15.0254402,0.0001157,LEO
56122,STARLINK-6094,2023,95.84,290.0,+,43.0,Active,1,LEO,USA,USA,Commercial,Communications,Falcon,1 56122U 23046AF  24012.63218767  .00000673  00000+0  64873-4 0  9997,2 56122  43.0035 115.1244 0001259 268.1720  91.8978 15.02535179 43674,15.02535179,0.0001259,LEO
56123,STARLINK-6115,2023,95.84,290.0,+,43.0,Active,1,LEO,USA,USA,Commercial,Communications,Falcon,1 56123U 23046AH  24012.68905052  .00001700  00000+0  14084-3 0  9993,2 56123  43.0036 102.5735 0001127 259.2397 100.8318 15.02542871 43829,15.02542871,0.0001127,LEO
56124,STARLINK-6126,2023,95.84,290.0,+,43.0,Active,1,LEO,USA,USA,Commercial,Communications,Falcon,1 56124U 23046AJ  24012.63589468  .00000125  00000+0  24309-4 0  9990,2 56124  43.0037 103.0350 0001195 257.9392 102.1317 15.02538202 43811,15.02538202,0.0001195,LEO
56125,STARLINK-6119,2023,95.84,290.0,+,43.0,Active,1,LEO,USA,USA,Commercial,Communications,Falcon,1 56125U 23046AK  24012.69126957  .00001403  00000+0  11886-3 0  9992,2 56125  43.0037 102.5899 0001178 265.4302  94.6406 15.02541466 43821,15.02541466,0.0001178,LEO
56126,STARLINK-6124,2023,95.84,290.0,+,43.0,Active,1,LEO,USA,USA,Commercial,Communications,Falcon,1 56126U 23046AL  24012.68572453  .00024378  00000+0  18131-2 0  9993,2 56126  43.0036 102.5501 0001306 262.2436  97.8258 15.02542394 43828,15.02542394,0.0001306,LEO
56127,STARLINK-6104,2023,95.84,290.0,+,43.0,Active,1,LEO,USA,USA,Commercial,Communications,Falcon,1 56127U 23046AM  24012.74332175  .00005537  00000+0  42453-3 0  9997,2 56127  43.0040 102.1175 0001309 259.2904 100.7791 15.02544570 43831,15.0254457,0.0001309,LEO
56128,STARLINK-6122,2023,95.84,290.0,+,43.0,Active,1,LEO,USA,USA,Commercial,Communications,Falcon,1 56128U 23046AN  24012.69348893  .00001639  00000+0  13639-3 0  9999,2 56128  43.0044 102.6083 0001171 272.4038  87.6670 15.02541960 43829,15.0254196,0.0001171,LEO
56129,STARLINK-6121,2023,95.84,290.0,+,43.0,Active,1,LEO,USA,USA,Commercial,Communications,Falcon,1 56129U 23046AP  24013.14767828  .00002544  00000+0  20335-3 0  9991,2 56129  43.0028  48.0963 0001045 254.5235 105.5492 15.02537341 45037,15.02537341,0.0001045,LEO
56130,STARLINK-6117,2023,95.84,290.0,+,43.0,Active,1,LEO,USA,USA,Commercial,Communications,Falcon,1 56130U 23046AQ  24013.14774431  .00017424  00000+0  13015-2 0  9990,2 56130  43.0038  99.9972 0001232 263.5858  96.4844 15.02541749 44433,15.02541749,0.0001232,LEO
56131,STARLINK-6120,2023,95.84,290.0,+,43.0,Active,1,LEO,USA,USA,Commercial,Communications,Falcon,1 56131U 23046AR  24012.73443981  .00002293  00000+0  18473-3 0  9990,2 56131  43.0037 102.0509 0001348 258.2405 101.8286 15.02541079 43832,15.02541079,0.0001348,LEO
56132,STARLINK-6071,2023,95.84,290.0,+,43.0,Active,1,LEO,USA,USA,Commercial,Communications,Falcon,1 56132U 23046AS  24012.74554087  .00003771  00000+0  29402-3 0  9998,2 56132  43.0038 102.1375 0001235 268.8402  91.2299 15.02545150 43835,15.0254515,0.0001235,LEO
56133,STARLINK-5566,2023,95.84,290.0,+,43.0,Active,1,LEO,USA,USA,Commercial,Communications,Falcon,1 56133U 23046AT  24012.67018688  .00000368  00000+0  42334-4 0  9992,2 56133  43.0033 102.4292 0001165 263.9778  96.0931 15.02536363 43827,15.02536363,0.0001165,LEO
56134,STARLINK-5564,2023,95.84,290.0,+,43.0,Active,1,LEO,USA,USA,Commercial,Communications,Falcon,1 56134U 23046AU  24012.73999144  .00002754  00000+0  21882-3 0  9990,2 56134  43.0036 102.0948 0001268 265.4752  94.5945 15.02544783 44372,15.02544783,0.0001268,LEO
56135,STARLINK-5563,2023,95.84,290.0,+,43.0,Active,1,LEO,USA,USA,Commercial,Communications,Falcon,1 56135U 23046AV  24013.16182841  .00000040  00000+0  18032-4 0  9997,2 56135  43.0042  61.0228 0001069 266.7143  93.3577 15.02533179 44883,15.02533179,0.0001069,LEO
56136,STARLINK-5489,2023,95.84,290.0,+,43.0,Active,1,LEO,USA,USA,Commercial,Communications,Falcon,1 56136U 23046AW  24012.67127682  .00002743  00000+0  21794-3 0  9995,2 56136  43.0041 102.4360 0001107 260.9187  99.1530 15.02554446 43823,15.02554446,0.0001107,LEO
56137,STARLINK-5090,2023,95.84,290.0,+,43.0,Active,1,LEO,USA,USA,Commercial,Communications,Falcon,1 56137U 23046AX  24012.71668350  .00010944  00000+0  82367-3 0  9998,2 56137  43.0038 101.9182 0001297 265.3936  94.6758 15.02550611 44370,15.02550611,0.0001297,LEO
56138,STARLINK-4774,2023,95.84,290.0,+,43.0,Active,1,LEO,USA,USA,Commercial,Communications,Falcon,1 56138U 23046AY  24012.73111809  .00022224  00000+0  16546-2 0  9992,2 56138  43.0037 102.0283 0001409 286.1133  73.9555 15.02545737 44377,15.02545737,0.0001409,LEO
56139,STARLINK-5378,2023,95.84,290.0,+,43.01,Active,1,LEO,USA,USA,Commercial,Communications,Falcon,1 56139U 23046AZ  24012.72223989  .00000427  00000+0  46651-4 0  9998,2 56139  43.0039 101.9597 0001428 261.6997  98.3684 15.02533044 43835,15.02533044,0.0001428,LEO
56140,STARLINK-5375,2023,95.84,290.0,+,43.0,Active,1,LEO,USA,USA,Commercial,Communications,Falcon,1 56140U 23046BA  24012.72889055  .00001839  00000+0  15114-3 0  9999,2 56140  43.0038 102.0104 0001275 263.9346  96.1351 15.02542546 43839,15.02542546,0.0001275,LEO
56141,STARLINK-5377,2023,95.84,290.0,+,43.0,Active,1,LEO,USA,USA,Commercial,Communications,Falcon,1 56141U 23046BB  24012.71446130  .00000723  00000+0  68586-4 0  9995,2 56141  43.0048 101.9013 0001180 262.9194  97.1515 15.02540436 43832,15.02540436,0.000118,LEO
56142,STARLINK-5376,2023,95.84,290.0,+,43.0,Active,1,LEO,USA,USA,Commercial,Communications,Falcon,1 56142U 23046BC  24012.72556103  .00003982  00000+0  30959-3 0  9991,2 56142  43.0034 101.9849 0001326 270.6506  89.4184 15.02545622 43838,15.02545622,0.0001326,LEO
56143,STARLINK-5016,2023,95.84,290.0,+,43.0,Active,1,LEO,USA,USA,Commercial,Communications,Falcon,1 56143U 23046BD  24012.64132797  .00001047  00000+0  92582-4 0  9993,2 56143  43.0034 102.2120 0001247 273.6732  86.3967 15.02536923 43829,15.02536923,0.0001247,LEO
56144,STARLINK-5374,2023,95.84,290.0,+,43.01,Active,1,LEO,USA,USA,Commercial,Communications,Falcon,1 56144U 23046BE  24012.72000863  .00004777  00000+0  36829-3 0  9995,2 56144  43.0038 101.9421 0001207 268.1992  91.8712 15.02550811 43839,15.02550811,0.0001207,LEO
56145,STARLINK-5370,2023,95.84,290.0,+,43.0,Active,1,LEO,USA,USA,Commercial,Communications,Falcon,1 56145U 23046BF  24013.15849818 -.00000132  00000+0  53068-5 0  9993,2 56145  43.0047  60.9976 0001057 272.5720  87.5001 15.02534150 44887,15.0253415,0.0001057,LEO
56146,STARLINK-5111,2023,95.84,290.0,+,43.0,Active,1,LEO,USA,USA,Commercial,Communications,Falcon,1 56146U 23046BG  24012.71112983  .00001638  00000+0  13624-3 0  9994,2 56146  43.0045 101.8752 0001126 268.8228  91.2485 15.02542784 43835,15.02542784,0.0001126,LEO
56147,STARLINK-5140,2023,95.84,290.0,+,43.01,Active,1,LEO,USA,USA,Commercial,Communications,Falcon,1 56147U 23046BH  24012.62112259 -.00002141  00000+0 -14351-3 0  9991,2 56147  43.0054  63.8421 0001003 266.6062  93.4665 15.02525957 44267,15.02525957,0.0001003,LEO
56148,STARLINK-5089,2023,95.84,290.0,+,43.0,Active,1,LEO,USA,USA,Commercial,Communications,Falcon,1 56148U 23046BJ  24013.15627772 -.00000140  00000+0  46977-5 0  9999,2 56148  43.0050  60.9788 0001150 256.1851 103.8864 15.02532613 44883,15.02532613,0.000115,LEO
56153,OBJECT A,2023,95.09,320.0,+,97.5,Active,1,LEO,PRC,China,Commercial,Earth Observation,Long March,1 56153U 23047A   24012.50269623  .00010865  00000+0  59657-3 0  9992,2 56153  97.5027 201.3132 0001578  69.5114 290.6287 15.14303881 43613,15.14303881,0.0001578,LEO
56154,OBJECT B,2023,95.09,270.0,+,97.5,Active,1,LEO,PRC,China,Commercial,Earth Observation,Long March,1 56154U 23047B   24012.50269691  .00010974  00000+0  60249-3 0  9998,2 56154  97.4998 201.3129 0001615 108.4070 251.7337 15.14302916 43614,15.14302916,0.0001615,LEO
